CCSDS_OEM_VERS = 1.0
CREATION_DATE  = 2017-05-11T12:03:48
ORIGINATOR     = GMAT USER

META_START
OBJECT_NAME          = MOPSSat_alt_35785_km_RAAN_270_128
OBJECT_ID            = SatId
CENTER_NAME          = Earth
REF_FRAME            = EME2000
TIME_SYSTEM          = UTC
START_TIME           = 2017-01-01T00:00:00.000
USEABLE_START_TIME   = 2017-01-01T00:00:00.000
USEABLE_STOP_TIME    = 2017-01-02T00:00:00.000
STOP_TIME            = 2017-01-02T00:00:00.000
INTERPOLATION        = Lagrange
INTERPOLATION_DEGREE = 7 
META_STOP


                                                                                   

2017-01-01T02:35:50.000   3.199539292735359e+04  -1.287306367858217e+04   1.117134233251663e+03   2.167957067516209e+00   2.990592217122804e+00   7.567069464433346e-02
2017-01-01T02:36:00.000   3.201705697674580e+04  -1.284315151882965e+04   1.117890398038190e+03   2.164852949441146e+00   2.991839205093835e+00   7.556226750472732e-02
2017-01-01T02:36:10.000   3.203868998677253e+04  -1.281322690827391e+04   1.118645478616950e+03   2.161749153594593e+00   2.993082321385589e+00   7.545385166605863e-02
2017-01-01T02:36:20.000   3.206029196068971e+04  -1.278328988559585e+04   1.119399475102128e+03   2.158645684741198e+00   2.994321569923865e+00   7.534544729474645e-02
2017-01-01T02:36:30.000   3.208186290179041e+04  -1.275334048945314e+04   1.120152387609206e+03   2.155542547633818e+00   2.995556954637436e+00   7.523705455679769e-02
2017-01-01T02:36:40.000   3.210340281340303e+04  -1.272337875847943e+04   1.120904216254899e+03   2.152439747013550e+00   2.996788479457791e+00   7.512867361780863e-02
2017-01-01T02:36:50.000   3.212491169868811e+04  -1.269340473157408e+04   1.121654961150065e+03   2.149337287639542e+00   2.998016148307772e+00   7.502030464400587e-02
2017-01-01T02:37:00.000   3.214638956091330e+04  -1.266341844751257e+04   1.122404622409303e+03   2.146235174248855e+00   2.999239965117002e+00   7.491194780084462e-02
2017-01-01T02:37:10.000   3.216783640334432e+04  -1.263341994509965e+04   1.123153200147144e+03   2.143133411572314e+00   3.000459933815687e+00   7.480360325356188e-02
2017-01-01T02:37:20.000   3.218925222972902e+04  -1.260340926249247e+04   1.123900694494950e+03   2.140032004264506e+00   3.001676058362131e+00   7.469527116473192e-02
2017-01-01T02:37:30.000   3.221063704381272e+04  -1.257338643787736e+04   1.124647105583994e+03   2.136930956973813e+00   3.002888342715122e+00   7.458695169671196e-02
2017-01-01T02:37:40.000   3.223199084944829e+04  -1.254335150931690e+04   1.125392433549304e+03   2.133830274326584e+00   3.004096790840185e+00   7.447864501108971e-02
2017-01-01T02:37:50.000   3.225331365031506e+04  -1.251330451513731e+04   1.126136678519854e+03   2.130729960967368e+00   3.005301406693377e+00   7.437035127008837e-02
2017-01-01T02:38:00.000   3.227460545012847e+04  -1.248324549364128e+04   1.126879840625878e+03   2.127630021529050e+00   3.006502194233414e+00   7.426207063552380e-02
2017-01-01T02:38:10.000   3.229586625263818e+04  -1.245317448310726e+04   1.127621919998806e+03   2.124530460632903e+00   3.007699157421411e+00   7.415380326880611e-02
2017-01-01T02:38:20.000   3.231709606142769e+04  -1.242309152208023e+04   1.128362916764268e+03   2.121431282918345e+00   3.008892300209865e+00   7.404554933197913e-02
2017-01-01T02:38:30.000   3.233829488018558e+04  -1.239299664898063e+04   1.129102831051565e+03   2.118332493002867e+00   3.010081626557616e+00   7.393730898632074e-02
2017-01-01T02:38:40.000   3.235946271259594e+04  -1.236288990226111e+04   1.129841662989841e+03   2.115234095498146e+00   3.011267140423735e+00   7.382908239290564e-02
2017-01-01T02:38:50.000   3.238059956282400e+04  -1.233277131971576e+04   1.130579412725035e+03   2.112136094938969e+00   3.012448845794692e+00   7.372086971012273e-02
2017-01-01T02:39:00.000   3.240170543502868e+04  -1.230264093917241e+04   1.131316080402867e+03   2.109038495854528e+00   3.013626746657006e+00   7.361267109616551e-02
2017-01-01T02:39:10.000   3.242278033348860e+04  -1.227249879831408e+04   1.132051666173236e+03   2.105941302750029e+00   3.014800847004301e+00   7.350448670838941e-02
2017-01-01T02:39:20.000   3.244382426226193e+04  -1.224234493515882e+04   1.132786170178347e+03   2.102844520156213e+00   3.015971150818090e+00   7.339631670504167e-02
2017-01-01T02:39:30.000   3.246483722546740e+04  -1.221217938766390e+04   1.133519592562521e+03   2.099748152588511e+00   3.017137662083635e+00   7.328816124383501e-02
2017-01-01T02:39:40.000   3.248581922722121e+04  -1.218200219381400e+04   1.134251933469990e+03   2.096652204556186e+00   3.018300384786349e+00   7.318002048226634e-02
2017-01-01T02:39:50.000   3.250677027165614e+04  -1.215181339159802e+04   1.134983193045569e+03   2.093556680559841e+00   3.019459322912977e+00   7.307189457753006e-02
2017-01-01T02:40:00.000   3.252769036294029e+04  -1.212161301897826e+04   1.135713371435301e+03   2.090461585088378e+00   3.020614480452479e+00   7.296378368641195e-02
2017-01-01T02:40:10.000   3.254857950528481e+04  -1.209140111387959e+04   1.136442468786742e+03   2.087366922617896e+00   3.021765861396457e+00   7.285568796525031e-02
2017-01-01T02:40:20.000   3.256943770301952e+04  -1.206117771408173e+04   1.137170485251580e+03   2.084272697600625e+00   3.022913469743350e+00   7.274760756954973e-02
2017-01-01T02:40:30.000   3.259026496054165e+04  -1.203094285729084e+04   1.137897420983865e+03   2.081178914472335e+00   3.024057309495502e+00   7.263954265423982e-02
2017-01-01T02:40:40.000   3.261106128231600e+04  -1.200069658113956e+04   1.138623276140004e+03   2.078085577652359e+00   3.025197384659164e+00   7.253149337367584e-02
2017-01-01T02:40:50.000   3.263182667292319e+04  -1.197043892311442e+04   1.139348050880447e+03   2.074992691536238e+00   3.026333699247031e+00   7.242345988138223e-02
2017-01-01T02:41:00.000   3.265256113698605e+04  -1.194016992066431e+04   1.140071745367118e+03   2.071900260506799e+00   3.027466257274235e+00   7.231544233043895e-02
2017-01-01T02:41:10.000   3.267326467916228e+04  -1.190988961121153e+04   1.140794359763161e+03   2.068808288935281e+00   3.028595062757941e+00   7.220744087352121e-02
2017-01-01T02:41:20.000   3.269393730412177e+04  -1.187959803218108e+04   1.141515894232145e+03   2.065716781184453e+00   3.029720119715943e+00   7.209945566300845e-02
2017-01-01T02:41:30.000   3.271457901653221e+04  -1.184929522102586e+04   1.142236348937563e+03   2.062625741611078e+00   3.030841432166025e+00   7.199148685107010e-02
2017-01-01T02:41:40.000   3.273518982111876e+04  -1.181898121513702e+04   1.142955724044916e+03   2.059535174556846e+00   3.031959004129097e+00   7.188353458934905e-02
2017-01-01T02:41:50.000   3.275576972239546e+04  -1.178865605224461e+04   1.143674019712337e+03   2.056445084389069e+00   3.033072839614814e+00   7.177559903038319e-02
2017-01-01T02:42:00.000   3.277631872499100e+04  -1.175831976993232e+04   1.144391236101961e+03   2.053355475451397e+00   3.034182942639025e+00   7.166768032588379e-02
2017-01-01T02:42:10.000   3.279683683352723e+04  -1.172797240581783e+04   1.145107373375688e+03   2.050266352082176e+00   3.035289317217184e+00   7.155977862737663e-02
2017-01-01T02:42:20.000   3.281732405309118e+04  -1.169761399685478e+04   1.145822431711649e+03   2.047177718543399e+00   3.036391967389824e+00   7.145189408372063e-02
2017-01-01T02:42:30.000   3.283778038876353e+04  -1.166724458002884e+04   1.146536411287762e+03   2.044089579091611e+00   3.037490897197055e+00   7.134402684358433e-02
2017-01-01T02:42:40.000   3.285820584572598e+04  -1.163686419220019e+04   1.147249312285468e+03   2.041001937961857e+00   3.038586110684366e+00   7.123617705488516e-02
2017-01-01T02:42:50.000   3.287860042899223e+04  -1.160647287049543e+04   1.147961134880344e+03   2.037914799407758e+00   3.039677611887900e+00   7.112834486618939e-02
2017-01-01T02:43:00.000   3.289896414360861e+04  -1.157607065201700e+04   1.148671879249110e+03   2.034828167671763e+00   3.040765404845482e+00   7.102053042567297e-02
2017-01-01T02:43:10.000   3.291929699465234e+04  -1.154565757384252e+04   1.149381545569563e+03   2.031742046985203e+00   3.041849493596371e+00   7.091273388112342e-02
2017-01-01T02:43:20.000   3.293959898703991e+04  -1.151523367331871e+04   1.150090134013892e+03   2.028656441597910e+00   3.042929882171298e+00   7.080495538097442e-02
2017-01-01T02:43:30.000   3.295987012578639e+04  -1.148479898766606e+04   1.150797644757729e+03   2.025571355738328e+00   3.044006574606013e+00   7.069719507291251e-02
2017-01-01T02:43:40.000   3.298011041590267e+04  -1.145435355413437e+04   1.151504077976558e+03   2.022486793629265e+00   3.045079574935844e+00   7.058945310442737e-02
2017-01-01T02:43:50.000   3.300031986285219e+04  -1.142389740931568e+04   1.152209433861662e+03   2.019402759418292e+00   3.046148887219884e+00   7.048172962038055e-02
2017-01-01T02:44:00.000   3.302049847209357e+04  -1.139343058983124e+04   1.152913712604155e+03   2.016319257247387e+00   3.047214515516709e+00   7.037402476543818e-02
2017-01-01T02:44:10.000   3.304064624918450e+04  -1.136295313217628e+04   1.153616914398611e+03   2.013236291237192e+00   3.048276463889892e+00   7.026633868352114e-02
2017-01-01T02:44:20.000   3.306076319951631e+04  -1.133246507311332e+04   1.154319039433798e+03   2.010153865527042e+00   3.049334736393704e+00   7.015867151920309e-02
2017-01-01T02:44:30.000   3.308084932851207e+04  -1.130196644938056e+04   1.155020087899594e+03   2.007071984245260e+00   3.050389337083820e+00   7.005102341667310e-02
2017-01-01T02:44:40.000   3.310090464162464e+04  -1.127145729769129e+04   1.155720059986915e+03   2.003990651509206e+00   3.051440270017088e+00   6.994339451973706e-02
2017-01-01T02:44:50.000   3.312092914414785e+04  -1.124093765502866e+04   1.156418955881131e+03   2.000909871454843e+00   3.052487539241871e+00   6.983578497285091e-02
